start=new Date('2022-04-01T00:00:00.000Z').valueOf();
sats=[{"MEAN_ANOMALY":"304.1373","SITE":"AFETR","REV_AT_EPOCH":"6464","RCS_SIZE":"LARGE","EPOCH":"2022-03-31T17:02:32.360064","MEAN_MOTION_DDOT":"0.0000000000000","SEMIMAJOR_AXIS":"6925.339","COUNTRY_CODE":"US","INCLINATION":"53.0570","PERIAPSIS":"545.955","EPHEMERIS_TYPE":"0","BSTAR":"0.00018439000000","ECCENTRICITY":"0.00018040","RA_OF_ASC_NODE":"351.4468","FILE":"3382153","OBJECT_ID":"2021-009BM","ELEMENT_SET_NO":"999","NORAD_CAT_ID":"47607","ARG_OF_PERICENTER":"55.9787","MEAN_ELEMENT_THEORY":"SGP4","LAUNCH_DATE":"2021-02-04","PERIOD":"95.592","CENTER_NAME":"EARTH","TLE_LINE1":"1 47607U 21009BM  22090.71009676  .00002466  00000-0  18439-3 0  9991","DECAY_DATE":null,"TLE_LINE2":"2 47607  53.0570 351.4468 0001804  55.9787 304.1373 15.06403125 64649","MEAN_MOTION_DOT":"0.00002466","TIME_SYSTEM":"UTC","REF_FRAME":"TEME","MEAN_MOTION":"15.06403125","OBJECT_TYPE":"PAYLOAD","CLASSIFICATION_TYPE":"U","APOAPSIS":"548.453","GP_ID":"200156084","OBJECT_NAME":"STARLINK-2025"},{"GP_ID":"200146378","OBJECT_NAME":"STARLINK-1528","CLASSIFICATION_TYPE":"U","OBJECT_TYPE":"PAYLOAD","APOAPSIS":"548.416","MEAN_MOTION":"15.06404093","MEAN_MOTION_DOT":"0.00003090","REF_FRAME":"TEME","TIME_SYSTEM":"UTC","TLE_LINE2":"2 47620  53.0543  53.4556 0001754  57.3227 302.7931 15.06404093 63020","TLE_LINE1":"1 47620U 21012A   22090.26225477  .00003090  00000-0  22623-3 0  9993","DECAY_DATE":null,"CENTER_NAME":"EARTH","LAUNCH_DATE":"2021-02-16","MEAN_ELEMENT_THEORY":"SGP4","PERIOD":"95.592","NORAD_CAT_ID":"47620","ARG_OF_PERICENTER":"57.3227","FILE":"3381849","RA_OF_ASC_NODE":"53.4556","ELEMENT_SET_NO":"999","OBJECT_ID":"2021-012A","BSTAR":"0.00022623000000","EPHEMERIS_TYPE":"0","PERIAPSIS":"545.986","ECCENTRICITY":"0.00017540","INCLINATION":"53.0543","COUNTRY_CODE":"US","SEMIMAJOR_AXIS":"6925.336","RCS_SIZE":"LARGE","EPOCH":"2022-03-31T06:17:38.812128","MEAN_MOTION_DDOT":"0.0000000000000","REV_AT_EPOCH":"6302","SITE":"AFETR","MEAN_ANOMALY":"302.7931"},{"REV_AT_EPOCH":"6256","EPOCH":"2022-03-31T14:04:42.564864","RCS_SIZE":"LARGE","MEAN_MOTION_DDOT":"0.0000000000000","SITE":"AFETR","MEAN_ANOMALY":"312.0089","RA_OF_ASC_NODE":"52.0117","FILE":"3381939","ELEMENT_SET_NO":"999","OBJECT_ID":"2021-012B","NORAD_CAT_ID":"47621","ARG_OF_PERICENTER":"48.1052","INCLINATION":"53.0569","COUNTRY_CODE":"US","SEMIMAJOR_AXIS":"6925.293","BSTAR":"-0.00009420200000","EPHEMERIS_TYPE":"0","PERIAPSIS":"545.917","ECCENTRICITY":"0.00017920","TLE_LINE1":"1 47621U 21012B   22090.58660376 -.00001685  00000-0 -94202-4 0  9993","DECAY_DATE":null,"LAUNCH_DATE":"2021-02-16","MEAN_ELEMENT_THEORY":"SGP4","PERIOD":"95.591","CENTER_NAME":"EARTH","CLASSIFICATION_TYPE":"U","OBJECT_TYPE":"PAYLOAD","APOAPSIS":"548.399","GP_ID":"200151048","OBJECT_NAME":"STARLINK-1609","REF_FRAME":"TEME","MEAN_MOTION_DOT":"-0.00001685","TIME_SYSTEM":"UTC","TLE_LINE2":"2 47621  53.0569  52.0117 0001792  48.1052 312.0089 15.06418254 62563","MEAN_MOTION":"15.06418254"},{"OBJECT_NAME":"STARLINK-1645","GP_ID":"200145391","APOAPSIS":"548.419","OBJECT_TYPE":"PAYLOAD","CLASSIFICATION_TYPE":"U","MEAN_MOTION":"15.06398199","TLE_LINE2":"2 47622  53.0567  53.2055 0001733  56.2232 303.8922 15.06398199 63033","MEAN_MOTION_DOT":"0.00000334","TIME_SYSTEM":"UTC","REF_FRAME":"TEME","DECAY_DATE":null,"TLE_LINE1":"1 47622U 21012C   22090.31754848  .00000334  00000-0  41331-4 0  9996","CENTER_NAME":"EARTH","PERIOD":"95.592","MEAN_ELEMENT_THEORY":"SGP4","LAUNCH_DATE":"2021-02-16","ARG_OF_PERICENTER":"56.2232","NORAD_CAT_ID":"47622","OBJECT_ID":"2021-012C","ELEMENT_SET_NO":"999","FILE":"3381849","RA_OF_ASC_NODE":"53.2055","ECCENTRICITY":"0.00017330","EPHEMERIS_TYPE":"0","PERIAPSIS":"546.019","BSTAR":"0.00004133100000","SEMIMAJOR_AXIS":"6925.354","COUNTRY_CODE":"US","INCLINATION":"53.0567","RCS_SIZE":"LARGE","EPOCH":"2022-03-31T07:37:16.188672","MEAN_MOTION_DDOT":"0.0000000000000","REV_AT_EPOCH":"6303","MEAN_ANOMALY":"303.8922","SITE":"AFETR"},{"SEMIMAJOR_AXIS":"6925.348","COUNTRY_CODE":"US","INCLINATION":"53.0578","EPHEMERIS_TYPE":"0","PERIAPSIS":"545.970","BSTAR":"-0.00004181500000","ECCENTRICITY":"0.00017940","FILE":"3381849","RA_OF_ASC_NODE":"348.7586","OBJECT_ID":"2021-012D","ELEMENT_SET_NO":"999","NORAD_CAT_ID":"47623","ARG_OF_PERICENTER":"54.5873","MEAN_ANOMALY":"305.5283","SITE":"AFETR","REV_AT_EPOCH":"6393","EPOCH":"2022-03-31T04:42:46.086336","RCS_SIZE":"LARGE","MEAN_MOTION_DDOT":"0.0000000000000","TLE_LINE2":"2 47623  53.0578 348.7586 0001794  54.5873 305.5283 15.06400319 63932","REF_FRAME":"TEME","MEAN_MOTION_DOT":"-0.00000904","TIME_SYSTEM":"UTC","MEAN_MOTION":"15.06400319","OBJECT_TYPE":"PAYLOAD","CLASSIFICATION_TYPE":"U","APOAPSIS":"548.455","GP_ID":"200146636","OBJECT_NAME":"STARLINK-1655","MEAN_ELEMENT_THEORY":"SGP4","LAUNCH_DATE":"2021-02-16","PERIOD":"95.592","CENTER_NAME":"EARTH","TLE_LINE1":"1 47623U 21012D   22090.19636674 -.00000904  00000-0 -41815-4 0  9991","DECAY_DATE":null},{"LAUNCH_DATE":"2021-02-16","MEAN_ELEMENT_THEORY":"SGP4","PERIOD":"95.592","CENTER_NAME":"EARTH","TLE_LINE1":"1 47624U 21012E   22090.12403452 -.00000433  00000-0 -10196-4 0  9996","DECAY_DATE":null,"MEAN_MOTION_DOT":"-0.00000433","REF_FRAME":"TEME","TIME_SYSTEM":"UTC","TLE_LINE2":"2 47624  53.0575  34.0847 0001776  59.7184 300.3981 15.06395131 63301","MEAN_MOTION":"15.06395131","CLASSIFICATION_TYPE":"U","OBJECT_TYPE":"PAYLOAD","APOAPSIS":"548.458","GP_ID":"200146872","OBJECT_NAME":"STARLINK-1669","SITE":"AFETR","MEAN_ANOMALY":"300.3981","REV_AT_EPOCH":"6330","RCS_SIZE":"LARGE","EPOCH":"2022-03-31T02:58:36.582528","MEAN_MOTION_DDOT":"0.0000000000000","INCLINATION":"53.0575","COUNTRY_CODE":"US","SEMIMAJOR_AXIS":"6925.363","BSTAR":"-0.00001019600000","PERIAPSIS":"545.999","EPHEMERIS_TYPE":"0","ECCENTRICITY":"0.00017760","RA_OF_ASC_NODE":"34.0847","FILE":"3381849","ELEMENT_SET_NO":"999","OBJECT_ID":"2021-012E","NORAD_CAT_ID":"47624","ARG_OF_PERICENTER":"59.7184"},{"MEAN_ELEMENT_THEORY":"SGP4","LAUNCH_DATE":"2021-02-16","PERIOD":"95.592","CENTER_NAME":"EARTH","TLE_LINE1":"1 47625U 21012F   22090.25856136  .00000389  00000-0  44996-4 0  9995","DECAY_DATE":null,"TLE_LINE2":"2 47625  53.0565  53.4814 0001638  55.8195 304.2949 15.06401253 63025","MEAN_MOTION_DOT":"0.00000389","TIME_SYSTEM":"UTC","REF_FRAME":"TEME","MEAN_MOTION":"15.06401253","OBJECT_TYPE":"PAYLOAD","CLASSIFICATION_TYPE":"U","APOAPSIS":"548.344","GP_ID":"200145141","OBJECT_NAME":"STARLINK-1704","MEAN_ANOMALY":"304.2949","SITE":"AFETR","REV_AT_EPOCH":"6302","MEAN_MOTION_DDOT":"0.0000000000000","RCS_SIZE":"LARGE","EPOCH":"2022-03-31T06:12:19.701504","COUNTRY_CODE":"US","SEMIMAJOR_AXIS":"6925.345","INCLINATION":"53.0565","PERIAPSIS":"546.075","EPHEMERIS_TYPE":"0","BSTAR":"0.00004499600000","ECCENTRICITY":"0.00016380","RA_OF_ASC_NODE":"53.4814","FILE":"3381849","OBJECT_ID":"2021-012F","ELEMENT_SET_NO":"999","NORAD_CAT_ID":"47625","ARG_OF_PERICENTER":"55.8195"},{"NORAD_CAT_ID":"47626","ARG_OF_PERICENTER":"58.3686","FILE":"3381849","RA_OF_ASC_NODE":"53.2502","OBJECT_ID":"2021-012G","ELEMENT_SET_NO":"999","EPHEMERIS_TYPE":"0","PERIAPSIS":"545.928","BSTAR":"0.00064588000000","ECCENTRICITY":"0.00017310","COUNTRY_CODE":"US","SEMIMAJOR_AXIS":"6925.262","INCLINATION":"53.0571","RCS_SIZE":"LARGE","EPOCH":"2022-03-31T07:26:36.610080","MEAN_MOTION_DDOT":"0.0000000000000","REV_AT_EPOCH":"6303","MEAN_ANOMALY":"301.7472","SITE":"AFETR","GP_ID":"200145885","OBJECT_NAME":"STARLINK-1761","OBJECT_TYPE":"PAYLOAD","CLASSIFICATION_TYPE":"U","APOAPSIS":"548.326","MEAN_MOTION":"15.06428272","TLE_LINE2":"2 47626  53.0571  53.2502 0001731  58.3686 301.7472 15.06428272 63036","MEAN_MOTION_DOT":"0.00009359","REF_FRAME":"TEME","TIME_SYSTEM":"UTC","TLE_LINE1":"1 47626U 21012G   22090.31014595  .00009359  00000-0  64588-3 0  9992","DECAY_DATE":null,"CENTER_NAME":"EARTH","MEAN_ELEMENT_THEORY":"SGP4","LAUNCH_DATE":"2021-02-16","PERIOD":"95.590"},{"ELEMENT_SET_NO":"999","OBJECT_ID":"2021-012H","FILE":"3381849","RA_OF_ASC_NODE":"317.0071","ARG_OF_PERICENTER":"58.4266","NORAD_CAT_ID":"47627","INCLINATION":"53.0539","SEMIMAJOR_AXIS":"6925.450","COUNTRY_CODE":"US","ECCENTRICITY":"0.00015820","BSTAR":"0.00292790000000","EPHEMERIS_TYPE":"0","PERIAPSIS":"546.219","REV_AT_EPOCH":"359","MEAN_MOTION_DDOT":"0.0000000000000","RCS_SIZE":"LARGE","EPOCH":"2022-03-31T14:00:01.000224","SITE":"AFETR","MEAN_ANOMALY":"286.4435","APOAPSIS":"548.410","CLASSIFICATION_TYPE":"U","OBJECT_TYPE":"PAYLOAD","OBJECT_NAME":"STARLINK-1972","GP_ID":"200146143","MEAN_MOTION_DOT":"0.00043561","REF_FRAME":"TEME","TIME_SYSTEM":"UTC","TLE_LINE2":"2 47627  53.0539 317.0071 0001582  58.4266 286.4435 15.06366972  3593","MEAN_MOTION":"15.06366972","DECAY_DATE":null,"TLE_LINE1":"1 47627U 21012H   22090.58334491  .00043561  00000-0  29279-2 0  9992","PERIOD":"95.594","LAUNCH_DATE":"2021-02-16","MEAN_ELEMENT_THEORY":"SGP4","CENTER_NAME":"EARTH"},{"OBJECT_NAME":"STARLINK-1973","GP_ID":"200146379","APOAPSIS":"548.279","CLASSIFICATION_TYPE":"U","OBJECT_TYPE":"PAYLOAD","MEAN_MOTION":"15.06394857","MEAN_MOTION_DOT":"0.00000126","REF_FRAME":"TEME","TIME_SYSTEM":"UTC","TLE_LINE2":"2 47628  53.0552  53.6810 0001515  64.1242 295.9903 15.06394857 63029","DECAY_DATE":null,"TLE_LINE1":"1 47628U 21012J   22090.21434280  .00000126  00000-0  27364-4 0  9995","CENTER_NAME":"EARTH","PERIOD":"95.592","LAUNCH_DATE":"2021-02-16","MEAN_ELEMENT_THEORY":"SGP4","ARG_OF_PERICENTER":"64.1242","NORAD_CAT_ID":"47628","ELEMENT_SET_NO":"999","OBJECT_ID":"2021-012J","FILE":"3381849","RA_OF_ASC_NODE":"53.6810","ECCENTRICITY":"0.00015150","BSTAR":"0.00002736400000","PERIAPSIS":"546.180","EPHEMERIS_TYPE":"0","INCLINATION":"53.0552","SEMIMAJOR_AXIS":"6925.364","COUNTRY_CODE":"US","RCS_SIZE":"LARGE","MEAN_MOTION_DDOT":"0.0000000000000","EPOCH":"2022-03-31T05:08:39.217920","REV_AT_EPOCH":"6302","SITE":"AFETR","MEAN_ANOMALY":"295.9903"}];
